{"fetched_at":"2026-07-21T07:06:28.574Z","source":"https://celestrak.org/NORAD/elements/gp.php?GROUP=oneweb&FORMAT=JSON","constellation":"oneweb","records":[{"OBJECT_NAME":"ONEWEB-0116","OBJECT_ID":"2021-025E","EPOCH":"2026-07-20T20:57:32.434848","CLASSIFICATION_TYPE":"U","MEAN_MOTION":13.13469772,"ECCENTRICITY":0.00018511,"INCLINATION":87.8989,"RA_OF_ASC_NODE":313.5171,"ARG_OF_PERICENTER":103.6786,"MEAN_ANOMALY":256.4549,"EPHEMERIS_TYPE":0,"NORAD_CAT_ID":48046,"ELEMENT_SET_NO":999,"REV_AT_EPOCH":25807,"BSTAR":-0.0008821404,"MEAN_MOTION_DOT":-0.00000309,"MEAN_MOTION_DDOT":0},{"OBJECT_NAME":"ONEWEB-0150","OBJECT_ID":"2021-025F","EPOCH":"2026-07-20T20:23:25.708704","CLASSIFICATION_TYPE":"U","MEAN_MOTION":13.13469394,"ECCENTRICITY":0.00018429,"INCLINATION":87.8991,"RA_OF_ASC_NODE":313.519,"ARG_OF_PERICENTER":94.5105,"MEAN_ANOMALY":265.6235,"EPHEMERIS_TYPE":0,"NORAD_CAT_ID":48047,"ELEMENT_SET_NO":999,"REV_AT_EPOCH":25796,"BSTAR":0.00061020084,"MEAN_MOTION_DOT":0.00000236,"MEAN_MOTION_DDOT":0},{"OBJECT_NAME":"ONEWEB-0107","OBJECT_ID":"2021-025G","EPOCH":"2026-07-20T20:25:51.061152","CLASSIFICATION_TYPE":"U","MEAN_MOTION":13.13471832,"ECCENTRICITY":0.00020742,"INCLINATION":87.8991,"RA_OF_ASC_NODE":313.5145,"ARG_OF_PERICENTER":95.7005,"MEAN_ANOMALY":264.436,"EPHEMERIS_TYPE":0,"NORAD_CAT_ID":48048,"ELEMENT_SET_NO":999,"REV_AT_EPOCH":25794,"BSTAR":0.00048220361,"MEAN_MOTION_DOT":0.00000189,"MEAN_MOTION_DDOT":0},{"OBJECT_NAME":"ONEWEB-0101","OBJECT_ID":"2021-025H","EPOCH":"2026-07-20T19:32:13.203744","CLASSIFICATION_TYPE":"U","MEAN_MOTION":13.1347175,"ECCENTRICITY":0.00021053,"INCLINATION":87.8977,"RA_OF_ASC_NODE":313.5344,"ARG_OF_PERICENTER":101.8141,"MEAN_ANOMALY":258.3225,"EPHEMERIS_TYPE":0,"NORAD_CAT_ID":48049,"ELEMENT_SET_NO":999,"REV_AT_EPOCH":25791,"BSTAR":-0.00058982545,"MEAN_MOTION_DOT":-0.00000203,"MEAN_MOTION_DDOT":0},{"OBJECT_NAME":"ONEWEB-0113","OBJECT_ID":"2021-025J","EPOCH":"2026-07-20T19:51:45.224928","CLASSIFICATION_TYPE":"U","MEAN_MOTION":13.13891066,"ECCENTRICITY":0.00018618,"INCLINATION":87.8982,"RA_OF_ASC_NODE":313.4387,"ARG_OF_PERICENTER":96.3401,"MEAN_ANOMALY":263.7941,"EPHEMERIS_TYPE":0,"NORAD_CAT_ID":48050,"ELEMENT_SET_NO":999,"REV_AT_EPOCH":25802,"BSTAR":0.00036824896,"MEAN_MOTION_DOT":0.00000148,"MEAN_MOTION_DDOT":0},{"OBJECT_NAME":"ONEWEB-0112","OBJECT_ID":"2021-025K","EPOCH":"2026-07-20T20:33:10.609920","CLASSIFICATION_TYPE":"U","MEAN_MOTION":13.13468917,"ECCENTRICITY":0.0002215,"INCLINATION":87.899,"RA_OF_ASC_NODE":313.512,"ARG_OF_PERICENTER":100.6174,"MEAN_ANOMALY":259.5204,"EPHEMERIS_TYPE":0,"NORAD_CAT_ID":48051,"ELEMENT_SET_NO":999,"REV_AT_EPOCH":25801,"BSTAR":-0.000012982218,"MEAN_MOTION_DOT":8e-8,"MEAN_MOTION_DDOT":0},{"OBJECT_NAME":"ONEWEB-0156","OBJECT_ID":"2021-025L","EPOCH":"2026-07-20T20:45:20.284704","CLASSIFICATION_TYPE":"U","MEAN_MOTION":13.13468979,"ECCENTRICITY":0.00019599,"INCLINATION":87.8989,"RA_OF_ASC_NODE":313.52,"ARG_OF_PERICENTER":96.2014,"MEAN_ANOMALY":263.9338,"EPHEMERIS_TYPE":0,"NORAD_CAT_ID":48052,"ELEMENT_SET_NO":999,"REV_AT_EPOCH":25799,"BSTAR":-0.0011713356,"MEAN_MOTION_DOT":-0.00000415,"MEAN_MOTION_DDOT":0},{"OBJECT_NAME":"ONEWEB-0161","OBJECT_ID":"2021-025M","EPOCH":"2026-07-20T20:08:47.083776","CLASSIFICATION_TYPE":"U","MEAN_MOTION":13.13473248,"ECCENTRICITY":0.00020511,"INCLINATION":87.8988,"RA_OF_ASC_NODE":313.526,"ARG_OF_PERICENTER":94.8362,"MEAN_ANOMALY":265.3001,"EPHEMERIS_TYPE":0,"NORAD_CAT_ID":48053,"ELEMENT_SET_NO":999,"REV_AT_EPOCH":25792,"BSTAR":0.00099640679,"MEAN_MOTION_DOT":0.00000377,"MEAN_MOTION_DDOT":0},{"OBJECT_NAME":"ONEWEB-0158","OBJECT_ID":"2021-025N","EPOCH":"2026-07-20T20:59:59.183520","CLASSIFICATION_TYPE":"U","MEAN_MOTION":13.13471763,"ECCENTRICITY":0.000189,"INCLINATION":87.8988,"RA_OF_ASC_NODE":313.5163,"ARG_OF_PERICENTER":109.4892,"MEAN_ANOMALY":250.6442,"EPHEMERIS_TYPE":0,"NORAD_CAT_ID":48054,"ELEMENT_SET_NO":999,"REV_AT_EPOCH":25805,"BSTAR":-0.00079550283,"MEAN_MOTION_DOT":-0.00000278,"MEAN_MOTION_DDOT":0},{"OBJECT_NAME":"ONEWEB-0157","OBJECT_ID":"2021-025P","EPOCH":"2026-07-20T19:46:50.533536","CLASSIFICATION_TYPE":"U","MEAN_MOTION":13.13471719,"ECCENTRICITY":0.00022681,"INCLINATION":87.8985,"RA_OF_ASC_NODE":313.5314,"ARG_OF_PERICENTER":94.6383,"MEAN_ANOMALY":265.5005,"EPHEMERIS_TYPE":0,"NORAD_CAT_ID":48055,"ELEMENT_SET_NO":999,"REV_AT_EPOCH":25798,"BSTAR":0.00040204489,"MEAN_MOTION_DOT":0.0000016,"MEAN_MOTION_DDOT":0},{"OBJECT_NAME":"ONEWEB-0162","OBJECT_ID":"2021-025Q","EPOCH":"2026-07-20T19:12:32.314464","CLASSIFICATION_TYPE":"U","MEAN_MOTION":13.13469572,"ECCENTRICITY":0.00018589,"INCLINATION":87.8983,"RA_OF_ASC_NODE":313.5361,"ARG_OF_PERICENTER":95.8593,"MEAN_ANOMALY":264.2748,"EPHEMERIS_TYPE":0,"NORAD_CAT_ID":48056,"ELEMENT_SET_NO":999,"REV_AT_EPOCH":25795,"BSTAR":-0.00086452322,"MEAN_MOTION_DOT":-0.00000303,"MEAN_MOTION_DDOT":0},{"OBJECT_NAME":"ONEWEB-0155","OBJECT_ID":"2021-025R","EPOCH":"2026-07-20T19:22:27.340032","CLASSIFICATION_TYPE":"U","MEAN_MOTION":13.13473411,"ECCENTRICITY":0.0002074,"INCLINATION":87.8988,"RA_OF_ASC_NODE":313.532,"ARG_OF_PERICENTER":95.374,"MEAN_ANOMALY":264.7626,"EPHEMERIS_TYPE":0,"NORAD_CAT_ID":48057,"ELEMENT_SET_NO":999,"REV_AT_EPOCH":25809,"BSTAR":-0.0038842759,"MEAN_MOTION_DOT":-0.00001406,"MEAN_MOTION_DDOT":0},{"OBJECT_NAME":"ONEWEB-0149","OBJECT_ID":"2021-025S","EPOCH":"2026-07-20T19:54:10.625760","CLASSIFICATION_TYPE":"U","MEAN_MOTION":13.13470627,"ECCENTRICITY":0.00018343,"INCLINATION":87.8985,"RA_OF_ASC_NODE":313.5314,"ARG_OF_PERICENTER":94.9826,"MEAN_ANOMALY":265.1513,"EPHEMERIS_TYPE":0,"NORAD_CAT_ID":48058,"ELEMENT_SET_NO":999,"REV_AT_EPOCH":25790,"BSTAR":0.00056917636,"MEAN_MOTION_DOT":0.00000221,"MEAN_MOTION_DDOT":0},{"OBJECT_NAME":"ONEWEB-0148","OBJECT_ID":"2021-025T","EPOCH":"2026-07-20T20:50:14.165664","CLASSIFICATION_TYPE":"U","MEAN_MOTION":13.13469205,"ECCENTRICITY":0.00018237,"INCLINATION":87.8982,"RA_OF_ASC_NODE":313.5284,"ARG_OF_PERICENTER":82.6745,"MEAN_ANOMALY":277.4592,"EPHEMERIS_TYPE":0,"NORAD_CAT_ID":48059,"ELEMENT_SET_NO":999,"REV_AT_EPOCH":25803,"BSTAR":-0.00074169289,"MEAN_MOTION_DOT":-0.00000258,"MEAN_MOTION_DDOT":0},{"OBJECT_NAME":"ONEWEB-0160","OBJECT_ID":"2021-025U","EPOCH":"2026-07-20T19:24:54.515520","CLASSIFICATION_TYPE":"U","MEAN_MOTION":13.13470056,"ECCENTRICITY":0.00015856,"INCLINATION":87.8979,"RA_OF_ASC_NODE":313.5363,"ARG_OF_PERICENTER":121.4639,"MEAN_ANOMALY":238.6645,"EPHEMERIS_TYPE":0,"NORAD_CAT_ID":48060,"ELEMENT_SET_NO":999,"REV_AT_EPOCH":25797,"BSTAR":-0.00074679398,"MEAN_MOTION_DOT":-0.0000026,"MEAN_MOTION_DDOT":0},{"OBJECT_NAME":"ONEWEB-0163","OBJECT_ID":"2021-025V","EPOCH":"2026-07-20T20:52:40.457280","CLASSIFICATION_TYPE":"U","MEAN_MOTION":13.13468911,"ECCENTRICITY":0.00022117,"INCLINATION":87.899,"RA_OF_ASC_NODE":313.521,"ARG_OF_PERICENTER":95.9679,"MEAN_ANOMALY":264.1702,"EPHEMERIS_TYPE":0,"NORAD_CAT_ID":48061,"ELEMENT_SET_NO":999,"REV_AT_EPOCH":25810,"BSTAR":-0.00081689397,"MEAN_MOTION_DOT":-0.00000286,"MEAN_MOTION_DDOT":0}]}
