ONEWEB-0116             
1 48046U 21025E   26201.87329207 -.00000309  00000+0 -88214-3 0  9990
2 48046  87.8989 313.5171 0001851 103.6786 256.4549 13.13469772258070
ONEWEB-0150             
1 48047U 21025F   26201.84960311  .00000236  00000+0  61020-3 0  9998
2 48047  87.8991 313.5190 0001842  94.5105 265.6235 13.13469394257969
ONEWEB-0107             
1 48048U 21025G   26201.85128543  .00000189  00000+0  48220-3 0  9997
2 48048  87.8991 313.5145 0002074  95.7005 264.4360 13.13471832257944
ONEWEB-0101             
1 48049U 21025H   26201.81404171 -.00000203  00000+0 -58983-3 0  9994
2 48049  87.8977 313.5344 0002105 101.8141 258.3225 13.13471750257913
ONEWEB-0113             
1 48050U 21025J   26201.82760677  .00000148  00000+0  36825-3 0  9990
2 48050  87.8982 313.4387 0001861  96.3401 263.7941 13.13891066258026
ONEWEB-0112             
1 48051U 21025K   26201.85637280  .00000008  00000+0 -12982-4 0  9992
2 48051  87.8990 313.5120 0002215 100.6174 259.5204 13.13468917258011
ONEWEB-0156             
1 48052U 21025L   26201.86481811 -.00000415  00000+0 -11713-2 0  9993
2 48052  87.8989 313.5200 0001959  96.2014 263.9338 13.13468979257997
ONEWEB-0161             
1 48053U 21025M   26201.83943384  .00000377  00000+0  99641-3 0  9991
2 48053  87.8988 313.5260 0002051  94.8362 265.3001 13.13473248257928
ONEWEB-0158             
1 48054U 21025N   26201.87499055 -.00000278  00000+0 -79550-3 0  9996
2 48054  87.8988 313.5163 0001890 109.4892 250.6442 13.13471763258053
ONEWEB-0157             
1 48055U 21025P   26201.82419599  .00000160  00000+0  40204-3 0  9999
2 48055  87.8985 313.5314 0002268  94.6383 265.5005 13.13471719257981
ONEWEB-0162             
1 48056U 21025Q   26201.80037401 -.00000303  00000+0 -86452-3 0  9992
2 48056  87.8983 313.5361 0001858  95.8593 264.2748 13.13469572257953
ONEWEB-0155             
1 48057U 21025R   26201.80726088 -.00001406  00000+0 -38843-2 0  9994
2 48057  87.8988 313.5320 0002074  95.3740 264.7626 13.13473411258097
ONEWEB-0149             
1 48058U 21025S   26201.82928965  .00000221  00000+0  56918-3 0  9991
2 48058  87.8985 313.5314 0001834  94.9826 265.1513 13.13470627257906
ONEWEB-0148             
1 48059U 21025T   26201.86821951 -.00000258  00000+0 -74169-3 0  9993
2 48059  87.8982 313.5284 0001823  82.6745 277.4592 13.13469205258030
ONEWEB-0160             
1 48060U 21025U   26201.80896430 -.00000260  00000+0 -74679-3 0  9992
2 48060  87.8979 313.5363 0001585 121.4639 238.6645 13.13470056257971
ONEWEB-0163             
1 48061U 21025V   26201.86991270 -.00000286  00000+0 -81689-3 0  9994
2 48061  87.8990 313.5210 0002211  95.9679 264.1702 13.13468911258103
